39074,GLOBALSTAR M094,2013,114.08,700.0,+,52.0,Active,1,LEO,Kazakhstan,Globalstar,Commercial,Communications,Soyuz,1 39074U 13005C   24097.31850643 -.00000103  00000+0  23882-5 0  9996,2 39074  51.9957  72.2502 0000582  54.9689 305.1232 12.62264200517201,12.622642,5.82e-05,LEO
39075,GLOBALSTAR M096,2013,114.08,700.0,+,52.01,Active,1,LEO,Kazakhstan,Globalstar,Commercial,Communications,Soyuz,1 39075U 13005D   24097.33160127 -.00000085  00000+0  10688-3 0  9997,2 39075  52.0053 120.3854 0000458  50.9342 309.1565 12.62264185516125,12.62264185,4.58e-05,LEO
39076,GLOBALSTAR M078,2013,114.08,700.0,+,51.99,Active,1,LEO,Kazakhstan,Globalstar,Commercial,Communications,Soyuz,1 39076U 13005E   24097.54333214 -.00000183  00000+0 -44200-3 0  9997,2 39076  51.9867 204.8489 0000440 294.8618  65.2202 12.62260329514778,12.62260329,4.4e-05,LEO
39077,GLOBALSTAR M095,2013,114.08,700.0,+,51.98,Active,1,LEO,Kazakhstan,Globalstar,Commercial,Communications,Soyuz,1 39077U 13005F   24097.56898579 -.00000101  00000+0  13579-4 0  9995,2 39077  51.9791 202.1792 0000369  24.0720 336.0164 12.62276586514633,12.62276586,3.69e-05,LEO
52888,GLOBALSTAR M087,2022,107.66,715.0,+,51.97,Active,1,LEO,USA,USA,Commercial,Communications,Falcon,1 52888U 22064A   24097.67367758 -.00000109  00000+0  36654-4 0  9994,2 52888  51.9747  97.7431 0009363 180.7308 179.3580 13.37569237 87953,13.37569237,0.0009363,LEO
